{"type": "FeatureCollection", "features": [ {"type": "Feature", "properties": {"norad_id": 43107, "name": "BEIDOU-3 M7 (C27)", "group": "gnss", "lat": 30.77827002080192, "lon": 103.63459550446056, "alt_km": 21521.68754145769, "timestamp": "2025-12-13T05:42:57.800028+00:00", "meta": {"OBJECT_NAME": "BEIDOU-3 M7 (C27)", "OBJECT_ID": "2018-003A", "EPOCH": "2025-12-10T08:14:11.609952", "MEAN_MOTION": 1.86232173, "ECCENTRICITY": 0.00026083, "INCLINATION": 54.4988, "RA_OF_ASC_NODE": 308.8983, "ARG_OF_PERICENTER": 70.7786, "MEAN_ANOMALY": 289.2405, "EPHEMERIS_TYPE": 0, "CLASSIFICATION_TYPE": "U", "NORAD_CAT_ID": 43107, "ELEMENT_SET_NO": 999, "REV_AT_EPOCH": 5383, "BSTAR": 0, "MEAN_MOTION_DOT": -8.2e-07, "MEAN_MOTION_DDOT": 0}, "tle": {"line1": "1 43107U 18003A   25344.34318993 -.00000082  00000+0  00000+0 0  9994", "line2": "2 43107  54.4988 308.8983 0002608  70.7786 289.2405  1.86232173 53837"}}, "geometry": {"type": "Point", "coordinates": [103.63459550446056, 30.77827002080192]}}, {"type": "Feature", "properties": {"norad_id": 43108, "name": "BEIDOU-3 M8 (C28)", "group": "gnss", "lat": 1.7658816866422546, "lon": 127.50149504104077, "alt_km": 21529.614150314523, "timestamp": "2025-12-13T05:42:57.800040+00:00", "meta": {"OBJECT_NAME": "BEIDOU-3 M8 (C28)", "OBJECT_ID": "2018-003B", "EPOCH": "2025-12-11T21:34:27.935616", "MEAN_MOTION": 1.86230641, "ECCENTRICITY": 0.0004792, "INCLINATION": 54.4903, "RA_OF_ASC_NODE": 308.8266, "ARG_OF_PERICENTER": 274.144, "MEAN_ANOMALY": 85.7923, "EPHEMERIS_TYPE": 0, "CLASSIFICATION_TYPE": "U", "NORAD_CAT_ID": 43108, "ELEMENT_SET_NO": 999, "REV_AT_EPOCH": 5387, "BSTAR": 0, "MEAN_MOTION_DOT": -9e-07, "MEAN_MOTION_DDOT": 0}, "tle": {"line1": "1 43108U 18003B   25345.89893444 -.00000090  00000+0  00000+0 0  9994", "line2": "2 43108  54.4903 308.8266 0004792 274.1440  85.7923  1.86230641 53878"}}, "geometry": {"type": "Point", "coordinates": [127.50149504104077, 1.7658816866422546]}}, {"type": "Feature", "properties": {"norad_id": 43207, "name": "BEIDOU-3 M4 (C22)", "group": "gnss", "lat": -47.18550826329399, "lon": -65.12318304459058, "alt_km": 21540.701744748185, "timestamp": "2025-12-13T05:42:57.800054+00:00", "meta": {"OBJECT_NAME": "BEIDOU-3 M4 (C22)", "OBJECT_ID": "2018-018A", "EPOCH": "2025-12-10T17:31:13.270944", "MEAN_MOTION": 1.86230984, "ECCENTRICITY": 0.00041357, "INCLINATION": 56.4844, "RA_OF_ASC_NODE": 69.3703, "ARG_OF_PERICENTER": 10.5342, "MEAN_ANOMALY": 349.4961, "EPHEMERIS_TYPE": 0, "CLASSIFICATION_TYPE": "U", "NORAD_CAT_ID": 43207, "ELEMENT_SET_NO": 999, "REV_AT_EPOCH": 5323, "BSTAR": 0, "MEAN_MOTION_DOT": -5.7e-07, "MEAN_MOTION_DDOT": 0}, "tle": {"line1": "1 43207U 18018A   25344.73001471 -.00000057  00000+0  00000+0 0  9996", "line2": "2 43207  56.4844  69.3703 0004135  10.5342 349.4961  1.86230984 53235"}}, "geometry": {"type": "Point", "coordinates": [-65.12318304459058, -47.18550826329399]}}, {"type": "Feature", "properties": {"norad_id": 43208, "name": "BEIDOU-3 M3 (C21)", "group": "gnss", "lat": -14.05164665635227, "lon": -101.16824006097535, "alt_km": 21539.310398181908, "timestamp": "2025-12-13T05:42:57.800066+00:00", "meta": {"OBJECT_NAME": "BEIDOU-3 M3 (C21)", "OBJECT_ID": "2018-018B", "EPOCH": "2025-12-10T19:07:00.567840", "MEAN_MOTION": 1.8623124, "ECCENTRICITY": 0.0006564, "INCLINATION": 56.484, "RA_OF_ASC_NODE": 69.3721, "ARG_OF_PERICENTER": 317.0111, "MEAN_ANOMALY": 42.9593, "EPHEMERIS_TYPE": 0, "CLASSIFICATION_TYPE": "U", "NORAD_CAT_ID": 43208, "ELEMENT_SET_NO": 999, "REV_AT_EPOCH": 5323, "BSTAR": 0, "MEAN_MOTION_DOT": -5.7e-07, "MEAN_MOTION_DDOT": 0}, "tle": {"line1": "1 43208U 18018B   25344.79653435 -.00000057  00000+0  00000+0 0  9996", "line2": "2 43208  56.4840  69.3721 0006564 317.0111  42.9593  1.86231240 53231"}}, "geometry": {"type": "Point", "coordinates": [-101.16824006097535, -14.05164665635227]}}, {"type": "Feature", "properties": {"norad_id": 43245, "name": "BEIDOU-3 M9 (C29)", "group": "gnss", "lat": 39.861353199663256, "lon": -16.80330637750494, "alt_km": 21526.963972605474, "timestamp": "2025-12-13T05:42:57.800077+00:00", "meta": {"OBJECT_NAME": "BEIDOU-3 M9 (C29)", "OBJECT_ID": "2018-029A", "EPOCH": "2025-12-09T09:38:36.109248", "MEAN_MOTION": 1.86227964, "ECCENTRICITY": 0.00016746, "INCLINATION": 54.3687, "RA_OF_ASC_NODE": 306.5834, "ARG_OF_PERICENTER": 274.0787, "MEAN_ANOMALY": 85.8921, "EPHEMERIS_TYPE": 0, "CLASSIFICATION_TYPE": "U", "NORAD_CAT_ID": 43245, "ELEMENT_SET_NO": 999, "REV_AT_EPOCH": 5236, "BSTAR": 0, "MEAN_MOTION_DOT": -7.6e-07, "MEAN_MOTION_DDOT": 0}, "tle": {"line1": "1 43245U 18029A   25343.40180682 -.00000076  00000+0  00000+0 0  9996", "line2": "2 43245  54.3687 306.5834 0001674 274.0787  85.8921  1.86227964 52369"}}, "geometry": {"type": "Point", "coordinates": [-16.80330637750494, 39.861353199663256]}}, {"type": "Feature", "properties": {"norad_id": 43246, "name": "BEIDOU-3 M10 (C30)", "group": "gnss", "lat": 53.99309630541844, "lon": 45.89648048313682, "alt_km": 21523.13441146397, "timestamp": "2025-12-13T05:42:57.800088+00:00", "meta": {"OBJECT_NAME": "BEIDOU-3 M10 (C30)", "OBJECT_ID": "2018-029B", "EPOCH": "2025-12-10T09:51:50.083776", "MEAN_MOTION": 1.86228788, "ECCENTRICITY": 0.00039909, "INCLINATION": 54.3654, "RA_OF_ASC_NODE": 306.5763, "ARG_OF_PERICENTER": 359.52, "MEAN_ANOMALY": 0.4707, "EPHEMERIS_TYPE": 0, "CLASSIFICATION_TYPE": "U", "NORAD_CAT_ID": 43246, "ELEMENT_SET_NO": 999, "REV_AT_EPOCH": 5236, "BSTAR": 0, "MEAN_MOTION_DOT": -8.1e-07, "MEAN_MOTION_DDOT": 0}, "tle": {"line1": "1 43246U 18029B   25344.41099634 -.00000081  00000+0  00000+0 0  9991", "line2": "2 43246  54.3654 306.5763 0003990 359.5200   0.4707  1.86228788 52367"}}, "geometry": {"type": "Point", "coordinates": [45.89648048313682, 53.99309630541844]}}, {"type": "Feature", "properties": {"norad_id": 43286, "name": "IRNSS-1I", "group": "gnss", "lat": 15.923536982149255, "lon": -133.67531178837578, "alt_km": 35709.937345739614, "timestamp": "2025-12-13T05:42:57.800100+00:00", "meta": {"OBJECT_NAME": "IRNSS-1I", "OBJECT_ID": "2018-035A", "EPOCH": "2025-12-10T20:46:45.825888", "MEAN_MOTION": 1.00270473, "ECCENTRICITY": 0.0021801, "INCLINATION": 29.146, "RA_OF_ASC_NODE": 77.1264, "ARG_OF_PERICENTER": 181.9029, "MEAN_ANOMALY": 187.524, "EPHEMERIS_TYPE": 0, "CLASSIFICATION_TYPE": "U", "NORAD_CAT_ID": 43286, "ELEMENT_SET_NO": 999, "REV_AT_EPOCH": 2819, "BSTAR": 0, "MEAN_MOTION_DOT": 8.2e-07, "MEAN_MOTION_DDOT": 0}, "tle": {"line1": "1 43286U 18035A   25344.86580817  .00000082  00000+0  00000+0 0  9999", "line2": "2 43286  29.1460  77.1264 0021801 181.9029 187.5240  1.00270473 28197"}}, "geometry": {"type": "Point", "coordinates": [-133.67531178837578, 15.923536982149255]}}, {"type": "Feature", "properties": {"norad_id": 43508, "name": "COSMOS 2527 (756)", "group": "gnss", "lat": -13.263063853136881, "lon": 73.94957872971439, "alt_km": 19143.339828465916, "timestamp": "2025-12-13T05:42:57.800112+00:00", "meta": {"OBJECT_NAME": "COSMOS 2527 (756)", "OBJECT_ID": "2018-053A", "EPOCH": "2025-12-10T21:51:43.881984", "MEAN_MOTION": 2.13102002, "ECCENTRICITY": 0.0008579, "INCLINATION": 65.4716, "RA_OF_ASC_NODE": 80.1926, "ARG_OF_PERICENTER": 224.6583, "MEAN_ANOMALY": 135.289, "EPHEMERIS_TYPE": 0, "CLASSIFICATION_TYPE": "U", "NORAD_CAT_ID": 43508, "ELEMENT_SET_NO": 999, "REV_AT_EPOCH": 5826, "BSTAR": 0, "MEAN_MOTION_DOT": -2.3e-07, "MEAN_MOTION_DDOT": 0}, "tle": {"line1": "1 43508U 18053A   25344.91092456 -.00000023  00000+0  00000+0 0  9995", "line2": "2 43508  65.4716  80.1926 0008579 224.6583 135.2890  2.13102002 58266"}}, "geometry": {"type": "Point", "coordinates": [73.94957872971439, -13.263063853136881]}}, {"type": "Feature", "properties": {"norad_id": 43539, "name": "BEIDOU-2 IGSO-7 (C16)", "group": "gnss", "lat": 48.9290756714925, "lon": -68.44823411756272, "alt_km": 35989.33268657571, "timestamp": "2025-12-13T05:42:57.800126+00:00", "meta": {"OBJECT_NAME": "BEIDOU-2 IGSO-7 (C16)", "OBJECT_ID": "2018-057A", "EPOCH": "2025-12-11T21:50:21.546240", "MEAN_MOTION": 1.00257146, "ECCENTRICITY": 0.0092462, "INCLINATION": 55.1747, "RA_OF_ASC_NODE": 164.678, "ARG_OF_PERICENTER": 235.1865, "MEAN_ANOMALY": 119.5447, "EPHEMERIS_TYPE": 0, "CLASSIFICATION_TYPE": "U", "NORAD_CAT_ID": 43539, "ELEMENT_SET_NO": 999, "REV_AT_EPOCH": 2724, "BSTAR": 0, "MEAN_MOTION_DOT": -4.7e-07, "MEAN_MOTION_DDOT": 0}, "tle": {"line1": "1 43539U 18057A   25345.90997160 -.00000047  00000+0  00000+0 0  9995", "line2": "2 43539  55.1747 164.6780 0092462 235.1865 119.5447  1.00257146 27242"}}, "geometry": {"type": "Point", "coordinates": [-68.44823411756272, 48.9290756714925]}}, {"type": "Feature", "properties": {"norad_id": 43564, "name": "GSAT0221 (GALILEO 25)", "group": "gnss", "lat": 53.95971802639153, "lon": 49.10339677734695, "alt_km": 23233.2435591868, "timestamp": "2025-12-13T05:42:57.800138+00:00", "meta": {"OBJECT_NAME": "GSAT0221 (GALILEO 25)", "OBJECT_ID": "2018-060A", "EPOCH": "2025-12-10T18:30:15.067872", "MEAN_MOTION": 1.70475777, "ECCENTRICITY": 0.0006715, "INCLINATION": 57.2282, "RA_OF_ASC_NODE": 346.8706, "ARG_OF_PERICENTER": 282.7382, "MEAN_ANOMALY": 77.2035, "EPHEMERIS_TYPE": 0, "CLASSIFICATION_TYPE": "U", "NORAD_CAT_ID": 43564, "ELEMENT_SET_NO": 999, "REV_AT_EPOCH": 4595, "BSTAR": 0, "MEAN_MOTION_DOT": -8.7e-07, "MEAN_MOTION_DDOT": 0}, "tle": {"line1": "1 43564U 18060A   25344.77100773 -.00000087  00000+0  00000+0 0  9991", "line2": "2 43564  57.2282 346.8706 0006715 282.7382  77.2035  1.70475777 45957"}}, "geometry": {"type": "Point", "coordinates": [49.10339677734695, 53.95971802639153]}}]}